GPS BIIR-2  (PRN 13)    
1 24876U 97035A   21121.53442563  .00000018  00000-0  00000-0 0  9999
2 24876  55.4679 171.7415 0047326  54.5980 305.9146  2.00562717174396
GPS BIIR-4  (PRN 20)    
1 26360U 00025A   21121.83149966  .00000005  00000-0  00000-0 0  9992
2 26360  53.7419  95.9247 0060245 175.7182  62.9859  2.00792727153714
GPS BIIR-5  (PRN 28)    
1 26407U 00040A   21121.63777649 -.00000016  00000-0  00000-0 0  9997
2 26407  55.7578 289.5922 0176514 283.1436  88.3418  2.00489159152396
GPS BIIR-8  (PRN 16)    
1 27663U 03005A   21121.68995942 -.00000016  00000-0  00000-0 0  9999
2 27663  55.8104 289.3855 0121050  37.7995 143.0015  2.00562013133750
GPS BIIR-9  (PRN 21)    
1 27704U 03010A   21121.39314932 -.00000087  00000-0  00000-0 0  9991
2 27704  54.8303  40.0324 0243620 294.0439 245.2826  2.00561399132545
GPS BIIR-10 (PRN 22)    
1 28129U 03058A   21121.22220719  .00000006  00000-0  00000-0 0  9996
2 28129  53.5524  98.6101 0072409 302.5655  56.7145  2.00577732127226
GPS BIIR-11 (PRN 19)    
1 28190U 04009A   21121.46788522 -.00000088  00000-0  00000-0 0  9999
2 28190  56.1998 350.2638 0090151 104.8093  71.3575  2.00568972125384
GPS BIIR-13 (PRN 02)    
1 28474U 04045A   21121.59239098 -.00000087  00000-0  00000-0 0  9996
2 28474  55.1663  40.0104 0204905 272.8255 268.9287  2.00564778120872
GPS BIIRM-1 (PRN 17)    
1 28874U 05038A   21121.44200389 -.00000086  00000-0  00000-0 0  9997
2 28874  56.2849 347.6757 0135722 270.2248 270.0337  2.00573871114279
GPS BIIRM-2 (PRN 31)    
1 29486U 06042A   21121.30954116 -.00000004  00000-0  00000-0 0  9992
2 29486  54.7796 225.6848 0098755  13.6570 345.1455  2.00551146106851
GPS BIIRM-3 (PRN 12)    
1 29601U 06052A   21117.76259250 -.00000021  00000-0  00000-0 0  9993
2 29601  55.8080 288.4659 0082613  68.3668 292.4855  2.00554378105774
GPS BIIRM-4 (PRN 15)    
1 32260U 07047A   21121.56243093  .00000024  00000-0  00000-0 0  9996
2 32260  53.2252 157.6106 0129148  55.4929 305.7816  2.00571073 99259
GPS BIIRM-5 (PRN 29)    
1 32384U 07062A   21121.63380830 -.00000087  00000-0  00000-0 0  9999
2 32384  56.3912 348.3796 0015961 125.8881  54.1583  2.00567141 97955
GPS BIIRM-6 (PRN 07)    
1 32711U 08012A   21121.47072709 -.00000007  00000-0  00000-0 0  9996
2 32711  54.5317 224.7072 0149677 226.6163 132.1526  2.00552866 96217
GPS BIIRM-8 (PRN 05)    
1 35752U 09043A   21120.95171559  .00000013  00000-0  00000-0 0  9990
2 35752  54.7801 102.1765 0058742  49.3031 309.4765  2.00541162 85780
GPS BIIF-1  (PRN 25)    
1 36585U 10022A   21119.54612311 -.00000016  00000-0  00000-0 0  9997
2 36585  55.0820 284.2052 0097333  54.4970 123.2605  2.00567874 79998
GPS BIIF-2  (PRN 01)    
1 37753U 11036A   21121.42602543 -.00000079  00000-0  00000-0 0  9996
2 37753  56.3874  44.7883 0106318  47.1294 134.2847  2.00562758 71710
GPS BIIF-3  (PRN 24)    
1 38833U 12053A   21119.16084898  .00000016  00000-0  00000+0 0  9990
2 38833  53.5801 220.3419 0109000  41.5062 319.3443  2.00555813 62721
GPS BIIF-4  (PRN 27)    
1 39166U 13023A   21121.51982515 -.00000082  00000-0  00000-0 0  9998
2 39166  55.9316 344.2033 0092746  34.0816 326.5476  2.00562981 58329
GPS BIIF-5  (PRN 30)    
1 39533U 14008A   21121.02214053 -.00000002  00000-0  00000-0 0  9993
2 39533  53.6849 225.7316 0052264 202.0351 157.7621  2.00558454 52131
GPS BIIF-6  (PRN 06)    
1 39741U 14026A   21120.30283305 -.00000075  00000-0  00000-0 0  9990
2 39741  56.3558  44.3595 0024551 300.6359  59.1234  2.00554469 50959
GPS BIIF-7  (PRN 09)    
1 40105U 14045A   21121.38376993  .00000024  00000-0  00000-0 0  9995
2 40105  54.6201 163.2545 0016581 107.7223 252.5253  2.00549233 48519
GPS BIIF-8  (PRN 03)    
1 40294U 14068A   21121.26038561  .00000018  00000-0  00000-0 0  9995
2 40294  55.5281 104.2553 0032725  44.7164 315.5292  2.00571351 47644
GPS BIIF-9  (PRN 26)    
1 40534U 15013A   21121.40271334 -.00000015  00000-0  00000-0 0  9994
2 40534  53.9876 281.7483 0057345  15.3007 344.8438  2.00548781 44264
GPS BIIF-10 (PRN 08)    
1 40730U 15033A   21121.06113041 -.00000081  00000-0  00000-0 0  9999
2 40730  55.4401 343.2457 0063474   0.0725 359.9646  2.00573484 42428
GPS BIIF-11 (PRN 10)    
1 41019U 15062A   21121.60603858  .00000019  00000-0  00000-0 0  9992
2 41019  55.5211 104.0758 0067387 214.9334 144.6068  2.00563636 40271
GPS BIIF-12 (PRN 32)    
1 41328U 16007A   21121.69676697  .00000022  00000-0  00000-0 0  9999
2 41328  54.8479 163.8106 0050551 225.3633 134.2884  2.00564309 38282
GPS BIII-1  (PRN 04)    
1 43873U 18109A   21121.75260234  .00000020  00000-0  00000-0 0  9992
2 43873  55.0288 166.1405 0012734 202.0522  92.5958  2.00554109 17516
GPS BIII-2  (PRN 18)    
1 44506U 19056A   21121.36344917 -.00000079  00000-0  00000-0 0  9991
2 44506  55.4535  45.4857 0013055 178.1107  92.9103  2.00564337 12502
GPS BIII-3  (PRN 23)    
1 45854U 20041A   21121.06792285  .00000015  00000-0  00000-0 0  9995
2 45854  55.2323 102.7586 0009957 158.1944 201.8283  2.00566389  6468
